OBJECT_NAME,OBJECT_ID,EPOCH,MEAN_MOTION,ECCENTRICITY,INCLINATION,RA_OF_ASC_NODE,ARG_OF_PERICENTER,MEAN_ANOMALY,EPHEMERIS_TYPE,CLASSIFICATION_TYPE,NORAD_CAT_ID,ELEMENT_SET_NO,REV_AT_EPOCH,BSTAR,MEAN_MOTION_DOT,MEAN_MOTION_DDOT
GPS BIIR-5  (PRN 22),2000-040A,2026-07-01T06:19:01.605792,2.00557850,.0120813,54.8500,214.6031,302.5927,64.5626,0,U,26407,999,19023,0,.67E-6,0
GPS BIIR-8  (PRN 16),2003-005A,2026-07-01T01:39:25.545024,2.00559890,.01480653,54.8806,214.4171,53.1131,309.9643,0,U,27663,999,17159,0,.67E-6,0
GPS BIIR-11 (PRN 19),2004-009A,2026-06-29T21:35:43.806912,2.00554450,.01166113,54.8190,275.1734,173.6473,218.0598,0,U,28190,999,16320,0,-.24E-6,0
GPS BIIR-13 (PRN 02),2004-045A,2026-06-29T18:42:32.461632,2.00556622,.01699497,55.1283,324.3893,316.7070,53.1426,0,U,28474,999,15868,0,-.91E-6,0
GPS BIIRM-1 (PRN 17),2005-038A,2026-07-01T07:16:38.791200,2.00564822,.0128065,54.8665,272.6075,296.2729,57.9137,0,U,28874,999,15211,0,-.15E-6,0
INMARSAT 4-F2 (SOUTHPAN/PRN 122),2005-044A,2026-07-01T14:28:30.698976,1.00270882,.00032698,5.1123,43.6647,46.3818,190.2243,0,U,28899,999,7566,0,-.253E-5,0
GPS BIIRM-2 (PRN 31),2006-042A,2026-07-01T10:57:29.714688,2.00569104,.01068904,54.7122,150.7725,54.7969,308.8381,0,U,29486,999,14468,0,.4E-6,0
GPS BIIRM-3 (PRN 12),2006-052A,2026-07-01T09:05:41.387136,2.00559005,.00848869,54.9336,213.4435,90.9332,270.1120,0,U,29601,999,14369,0,.67E-6,0
GPS BIIRM-4 (PRN 15),2007-047A,2026-06-30T16:29:20.943744,2.00554732,.01672766,54.1048,79.5092,87.6739,274.2771,0,U,32260,999,13708,0,-.37E-6,0
COSMOS 2433 (720),2007-052A,2026-06-30T23:50:25.458144,2.13104454,.0003044,65.5682,315.4689,199.1332,160.8514,0,U,32275,999,14535,0,-.58E-6,0
COSMOS 2432 (719),2007-052B,2026-07-01T06:20:51.763200,2.13103422,.0007461,65.5843,315.5873,327.2592,184.5642,0,U,32276,999,14538,0,-.56E-6,0
GPS BIIRM-5 (PRN 29),2007-062A,2026-06-30T18:01:14.990880,2.00560986,.00359011,55.0207,273.6071,166.5429,7.1566,0,U,32384,999,13578,0,-.17E-6,0
COSMOS 2434 (721),2007-065A,2026-06-30T10:22:56.182080,2.13101392,.00012699,64.3195,191.4691,327.2490,212.3156,0,U,32393,999,14405,0,.81E-6,0
COSMOS 2436 (723),2007-065C,2026-06-30T14:26:22.399296,2.13100248,.00172892,64.3275,191.5357,353.5646,87.9496,0,U,32395,999,14401,0,.8E-6,0
GPS BIIRM-6 (PRN 07),2008-012A,2026-07-01T02:17:44.477088,2.00572867,.02115048,54.4990,149.3692,248.0010,109.7035,0,U,32711,999,13403,0,.35E-6,0
GPS BIIRM-8 (PRN 05),2009-043A,2026-07-01T06:14:31.363008,2.00553676,.0053808,56.2191,26.8994,83.8081,43.6394,0,U,35752,999,12364,0,-.65E-6,0
COSMOS 2456 (730),2009-070A,2026-06-29T17:58:50.816928,2.13103743,.00038814,65.0182,70.5436,338.2816,195.2198,0,U,36111,999,12869,0,-.27E-6,0
COSMOS 2457 (733),2009-070B,2026-06-30T11:10:25.209984,2.13101296,.00034985,65.0045,70.3622,122.8939,7.4731,0,U,36112,999,12871,0,-.21E-6,0
COSMOS 2460 (732),2010-007C,2026-06-30T01:20:32.777088,2.13101843,.00019507,65.4124,314.0307,124.3103,53.7611,0,U,36402,999,12700,0,-.64E-6,0
GPS BIIF-1  (PRN 25),2010-022A,2026-07-01T04:01:16.231008,2.00563167,.01264889,54.2695,207.9989,66.1337,113.7301,0,U,36585,999,11787,0,.69E-6,0
BEIDOU-2 IGSO-1 (C06),2010-036A,2026-06-30T08:59:38.680800,1.00268449,.00588274,54.3057,162.8407,225.1163,132.8817,0,U,36828,999,5822,0,-.82E-6,0
BEIDOU-2 G4 (C04),2010-057A,2026-07-01T14:47:20.799744,1.00271536,.00048299,3.6813,68.8647,189.6248,42.9930,0,U,37210,999,5743,0,-.104E-5,0
BEIDOU-2 IGSO-2 (C07),2010-068A,2026-06-30T16:18:05.669856,1.00279341,.00565661,47.5224,271.6646,213.8845,145.9362,0,U,37256,999,5693,0,-.187E-5,0
BEIDOU-2 IGSO-3 (C08),2011-013A,2026-07-01T12:49:50.551968,1.00264921,.00352253,62.4273,40.0161,184.0407,355.1634,0,U,37384,999,5580,0,-.159E-5,0
GSAT-8 (GAGAN/PRN 127),2011-022A,2026-07-01T14:17:24.167904,1.00272609,.00018224,2.1663,81.6591,174.3523,293.0828,0,U,37605,999,5336,0,.93E-6,0
BEIDOU-2 IGSO-4 (C09),2011-038A,2026-06-30T22:39:21.613824,1.00282911,.01596501,54.6040,165.5504,231.3791,315.8344,0,U,37763,999,5478,0,.17E-6,0
GSAT0101 (GALILEO-PFM),2011-060A,2026-06-28T13:55:20.086176,1.70475892,.00027603,56.9903,341.4525,57.0252,302.9933,0,U,37846,999,9131,0,-.91E-6,0
GSAT0102 (GALILEO-FM2),2011-060B,2026-07-01T10:17:39.723936,1.70476137,.00026352,56.9903,341.3759,13.8073,340.2416,0,U,37847,999,9136,0,-.81E-6,0
COSMOS 2476 (744),2011-064A,2026-06-30T08:21:38.746368,2.13103942,.00223312,65.2771,72.4268,237.2616,304.2291,0,U,37867,999,11404,0,-.21E-6,0
COSMOS 2477 (745),2011-064B,2026-06-30T13:53:38.816736,2.13103152,.00194059,65.2838,72.4985,238.4488,300.2195,0,U,37868,999,11404,0,-.19E-6,0
COSMOS 2475 (743),2011-064C,2026-07-01T13:45:38.615040,2.13101985,.00251577,65.2912,72.4867,252.1054,284.5268,0,U,37869,999,11407,0,-.13E-6,0
