NAVSTAR 48 (USA 151)    
1 26407U 00040A   26182.26321303  .00000067  00000+0  00000+0 0  9993
2 26407  54.8500 214.6031 0120813 302.5927  64.5626  2.00557850190239
NAVSTAR 51 (USA 166)    
1 27663U 03005A   26182.06904566  .00000067  00000+0  00000+0 0  9998
2 27663  54.8806 214.4171 0148065  53.1131 309.9643  2.00559890171590
NAVSTAR 54 (USA 177)    
1 28190U 04009A   26180.89981258 -.00000024  00000+0  00000+0 0  9995
2 28190  54.8190 275.1734 0116611 173.6473 218.0598  2.00554450163205
NAVSTAR 56 (USA 180)    
1 28474U 04045A   26180.77954238 -.00000091  00000+0  00000+0 0  9999
2 28474  55.1283 324.3893 0169949 316.7070  53.1426  2.00556622158682
NAVSTAR 57 (USA 183)    
1 28874U 05038A   26182.30322675 -.00000015  00000+0  00000+0 0  9997
2 28874  54.8665 272.6075 0128065 296.2729  57.9137  2.00564822152114
INMARSAT 4-F2           
1 28899U 05044A   26182.60313309 -.00000253  00000+0  00000+0 0  9992
2 28899   5.1123  43.6647 0003269  46.3818 190.2243  1.00270882 75663
NAVSTAR 58 (USA 190)    
1 29486U 06042A   26182.45659392  .00000040  00000+0  00000+0 0  9995
2 29486  54.7122 150.7725 0106890  54.7969 308.8381  2.00569104144684
NAVSTAR 59 (USA 192)    
1 29601U 06052A   26182.37895124  .00000067  00000+0  00000+0 0  9990
2 29601  54.9336 213.4435 0084886  90.9332 270.1120  2.00559005143694
NAVSTAR 60 (USA 196)    
1 32260U 07047A   26181.68704796 -.00000037  00000+0  00000+0 0  9995
2 32260  54.1048  79.5092 0167276  87.6739 274.2771  2.00554732137085
COSMOS 2433 [GLONASS-M] 
1 32275U 07052A   26181.99335021 -.00000058  00000+0  00000+0 0  9995
2 32275  65.5682 315.4689 0003044 199.1332 160.8514  2.13104454145355
COSMOS 2432 [GLONASS-M] 
1 32276U 07052B   26182.26448800 -.00000056  00000+0  00000+0 0  9995
2 32276  65.5843 315.5873 0007461 327.2592 184.5642  2.13103422145382
NAVSTAR 61 (USA 199)    
1 32384U 07062A   26181.75086795 -.00000017  00000+0  00000+0 0  9997
2 32384  55.0207 273.6071 0035901 166.5429   7.1566  2.00560986135783
COSMOS 2434 [GLONASS-M] 
1 32393U 07065A   26181.43259470  .00000081  00000+0  00000+0 0  9997
2 32393  64.3195 191.4691 0001269 327.2490 212.3156  2.13101392144052
COSMOS 2436 [GLONASS-M] 
1 32395U 07065C   26181.60164814  .00000080  00000+0  00000+0 0  9994
2 32395  64.3275 191.5357 0017289 353.5646  87.9496  2.13100248144015
NAVSTAR 62 (USA 201)    
1 32711U 08012A   26182.09565367  .00000035  00000+0  00000+0 0  9991
2 32711  54.4990 149.3692 0211504 248.0010 109.7035  2.00572867134032
NAVSTAR 64 (USA 206)    
1 35752U 09043A   26182.26008522 -.00000065  00000+0  00000+0 0  9992
2 35752  56.2191  26.8994 0053808  83.8081  43.6394  2.00553676123647
COSMOS 2456 [GLONASS-M] 
1 36111U 09070A   26180.74919927 -.00000027  00000+0  00000+0 0  9991
2 36111  65.0182  70.5436 0003881 338.2816 195.2198  2.13103743128697
COSMOS 2457 [GLONASS-M] 
1 36112U 09070B   26181.46556956 -.00000021  00000+0  00000+0 0  9995
2 36112  65.0045  70.3622 0003498 122.8939   7.4731  2.13101296128719
COSMOS 2460 [GLONASS-M] 
1 36402U 10007C   26181.05593492 -.00000064  00000+0  00000+0 0  9997
2 36402  65.4124 314.0307 0001950 124.3103  53.7611  2.13101843127002
NAVSTAR 65 (USA 213)    
1 36585U 10022A   26182.16754897  .00000069  00000+0  00000+0 0  9991
2 36585  54.2695 207.9989 0126488  66.1337 113.7301  2.00563167117879
BEIDOU-2 IGSO-1         
1 36828U 10036A   26181.37475325 -.00000082  00000+0  00000+0 0  9990
2 36828  54.3057 162.8407 0058827 225.1163 132.8817  1.00268449 58222
BEIDOU-2 G4             
1 37210U 10057A   26182.61621296 -.00000104  00000+0  00000+0 0  9992
2 37210   3.6813  68.8647 0004829 189.6248  42.9930  1.00271536 57437
BEIDOU-2 IGSO-2         
1 37256U 10068A   26181.67923229 -.00000187  00000+0  00000+0 0  9991
2 37256  47.5224 271.6646 0056566 213.8845 145.9362  1.00279341 56930
BEIDOU-2 IGSO-3         
1 37384U 11013A   26182.53461287 -.00000159  00000+0  00000+0 0  9990
2 37384  62.4273  40.0161 0035225 184.0407 355.1634  1.00264921 55804
GSAT-8                  
1 37605U 11022A   26182.59541861  .00000093  00000+0  00000+0 0  9995
2 37605   2.1663  81.6591 0001822 174.3523 293.0828  1.00272609 53365
BEIDOU-2 IGSO-4         
1 37763U 11038A   26181.94400016  .00000017  00000+0  00000+0 0  9997
2 37763  54.6040 165.5504 0159650 231.3791 315.8344  1.00282911 54781
GSAT0101 (GALILEO-PFM)  
1 37846U 11060A   26179.58009359 -.00000091  00000+0  00000+0 0  9999
2 37846  56.9903 341.4525 0002760  57.0252 302.9933  1.70475892 91318
GSAT0102 (GALILEO-FM2)  
1 37847U 11060B   26182.42893199 -.00000081  00000+0  00000+0 0  9999
2 37847  56.9903 341.3759 0002635  13.8073 340.2416  1.70476137 91368
COSMOS 2476 [GLONASS-M] 
1 37867U 11064A   26181.34836512 -.00000021  00000+0  00000+0 0  9995
2 37867  65.2771  72.4268 0022331 237.2616 304.2291  2.13103942114044
COSMOS 2477 [GLONASS-M] 
1 37868U 11064B   26181.57892149 -.00000019  00000+0  00000+0 0  9996
2 37868  65.2838  72.4985 0019405 238.4488 300.2195  2.13103152114045
COSMOS 2475 [GLONASS-M] 
1 37869U 11064C   26182.57336360 -.00000013  00000+0  00000+0 0  9990
2 37869  65.2912  72.4867 0025157 252.1054 284.5268  2.13101985114071
